{"fetched_at":"2026-03-30T09:12:31Z","count":15922,"tles":[{"name":"STARLINK-35624","line1":"1 66166U 25240W   26087.89580417  .00015094  00000+0  52111-3 0  9994","line2":"2 66166  53.1593 333.2591 0001085  78.8262 281.2860 15.30175723 24935","category":"Starlink"}]}